H1 CPF 01  gfz 2021 11 30 01  8341 terrasarx 
H2 0702601  6201 31698    2021 11 30 00 59 42 2021 12 05 00 00 42   120 1 1  0 0 0
H9
10 0 59548  86382.000000  0    -306398.474   6596692.663   1954195.031
10 0 59549    102.000000  0    -133300.637   6802877.226   1072236.121
10 0 59549    222.000000  0      44665.336   6887062.908    171397.777
10 0 59549    342.000000  0     222240.302   6847781.765   -732458.749
10 0 59549    462.000000  0     394170.480   6685839.031  -1623433.252
10 0 59549    582.000000  0     555339.605   6404290.933  -2485874.735
10 0 59549    702.000000  0     700897.096   6008378.934  -3304661.976
10 0 59549    822.000000  0     826380.013   5505422.005  -4065472.007
10 0 59549    942.000000  0     927825.220   4904669.190  -4755030.906
10 0 59549   1062.000000  0    1001869.253   4217116.988  -5361341.586
10 0 59549   1182.000000  0    1045833.595   3455297.230  -5873885.016
10 0 59549   1302.000000  0    1057793.206   2633040.392  -6283793.437
10 0 59549   1422.000000  0    1036627.833   1765219.008  -6583992.031
10 0 59549   1542.000000  0     982055.050    867478.676  -6769309.545
10 0 59549   1662.000000  0     894644.726    -44041.220  -6836558.871
10 0 59549   1782.000000  0     775815.074   -952992.879  -6784585.580
10 0 59549   1902.000000  0     627809.564  -1843106.490  -6614283.890
10 0 59549   2022.000000  0     453656.327  -2698472.647  -6328582.584
10 0 59549   2142.000000  0     257109.541  -3503821.239  -5932402.646
10 0 59549   2262.000000  0      42573.173  -4244792.506  -5432580.628
10 0 59549   2382.000000  0    -184990.161  -4908193.222  -4837761.157
10 0 59549   2502.000000  0    -420165.476  -5482236.395  -4158259.171
10 0 59549   2622.000000  0    -657204.774  -5956759.343  -3405891.304
10 0 59549   2742.000000  0    -890156.860  -6323414.427  -2593778.106
10 0 59549   2862.000000  0   -1113005.177  -6575828.472  -1736120.440
10 0 59549   2982.000000  0   -1319810.319  -6709726.811   -847951.648
10 0 59549   3102.000000  0   -1504853.612  -6723016.446     55129.490
10 0 59549   3222.000000  0   -1662778.369  -6615826.148    957238.818
10 0 59549   3342.000000  0   -1788725.471  -6390502.276   1842494.284
10 0 59549   3462.000000  0   -1878459.198  -6051559.646   2695304.834
10 0 59549   3582.000000  0   -1928479.739  -5605588.023   3500653.778
10 0 59549   3702.000000  0   -1936119.435  -5061117.317   4244369.607
10 0 59549   3822.000000  0   -1899620.345  -4428445.994   4913378.524
10 0 59549   3942.000000  0   -1818192.680  -3719437.893   5495934.996
10 0 59549   4062.000000  0   -1692052.010  -2947289.945   5981826.973
10 0 59549   4182.000000  0   -1522433.359  -2126277.950   6362549.376
10 0 59549   4302.000000  0   -1311583.446  -1271488.226   6631446.458
10 0 59549   4422.000000  0   -1062732.309   -398537.233   6783822.648
10 0 59549   4542.000000  0    -780044.585    476714.961   6817018.503
10 0 59549   4662.000000  0    -468549.980   1338451.752   6730454.673
10 0 59549   4782.000000  0    -134053.634   2171185.454   6525641.742
10 0 59549   4902.000000  0     216971.765   2960035.391   6206155.307
10 0 59549   5022.000000  0     577509.841   3690994.053   5777577.491
10 0 59549   5142.000000  0     940138.542   4351178.832   5247405.132
10 0 59549   5262.000000  0    1297180.647   4929064.020   4624924.727
10 0 59549   5382.000000  0    1640863.694   5414689.187   3921054.666
10 0 59549   5502.000000  0    1963486.081   5799838.749   3148159.408
10 0 59549   5622.000000  0    2257587.744   6078192.167   2319833.728
10 0 59549   5742.000000  0    2516117.580   6245436.272   1450659.847
10 0 59549   5862.000000  0    2732596.340   6299337.271    555944.528
10 0 59549   5982.000000  0    2901268.316   6239769.801   -348557.877
10 0 59549   6102.000000  0    3017240.211   6068704.875  -1246930.666
10 0 59549   6222.000000  0    3076603.164   5790155.274  -2123383.046
10 0 59549   6342.000000  0    3076534.504   5410080.919  -2962534.793
10 0 59549   6462.000000  0    3015376.912   4936255.600  -3749691.970
10 0 59549   6582.000000  0    2892692.271   4378098.731  -4471105.835
10 0 59549   6702.000000  0    2709289.924   3746479.194  -5114210.457
10 0 59549   6822.000000  0    2467229.519   3053495.493  -5667835.480
10 0 59549   6942.000000  0    2169799.495   2312237.611  -6122391.636
10 0 59549   7062.000000  0    1821470.560   1536535.560  -6470025.860
10 0 59549   7182.000000  0    1427827.174    740701.015  -6704744.786
10 0 59549   7302.000000  0     995478.100    -60733.686  -6822508.402
10 0 59549   7422.000000  0     531945.325   -853276.457  -6821292.630
10 0 59549   7542.000000  0      45535.051  -1622731.685  -6701118.577
10 0 59549   7662.000000  0    -454806.819  -2355446.853  -6464051.772
10 0 59549   7782.000000  0    -959654.996  -3038549.767  -6114172.327
10 0 59549   7902.000000  0   -1459277.937  -3660172.555  -5657511.502
10 0 59549   8022.000000  0   -1943820.688  -4209657.345  -5101958.139
10 0 59549   8142.000000  0   -2403496.193  -4677743.261  -4457134.724
10 0 59549   8262.000000  0   -2828781.778  -5056729.744  -3734241.243
10 0 59549   8382.000000  0   -3210615.742  -5340611.395  -2945869.215
10 0 59549   8502.000000  0   -3540590.284  -5525182.473  -2105788.882
10 0 59549   8622.000000  0   -3811136.944  -5608107.987  -1228711.482
10 0 59549   8742.000000  0   -4015699.159  -5588958.497   -330029.952
10 0 59549   8862.000000  0   -4148886.641  -5469206.746    574456.533
10 0 59549   8982.000000  0   -4206607.950  -5252185.888   1468828.070
10 0 59549   9102.000000  0   -4186177.400  -4943009.291   2337333.842
10 0 59549   9222.000000  0   -4086392.850  -4548453.883   3164678.210
10 0 59549   9342.000000  0   -3907583.461  -4076811.385   3936297.088
10 0 59549   9462.000000  0   -3651625.831  -3537710.718   4638619.766
10 0 59549   9582.000000  0   -3321927.949  -2941915.372   5259309.412
10 0 59549   9702.000000  0   -2923382.734  -2301102.984   5787477.721
10 0 59549   9822.000000  0   -2462292.206  -1627632.608   6213872.268
10 0 59549   9942.000000  0   -1946264.327   -934303.012   6531034.685
10 0 59549  10062.000000  0   -1384082.778   -234105.631   6733425.833
10 0 59549  10182.000000  0    -785554.358    460019.132   6817514.047
10 0 59549  10302.000000  0    -161338.363   1135419.386   6781832.985
10 0 59549  10422.000000  0     477242.903   1779961.911   6627006.117
10 0 59549  10542.000000  0    1118409.129   2382250.162   6355736.456
10 0 59549  10662.000000  0    1750138.471   2931825.468   5972761.654
10 0 59549  10782.000000  0    2360392.076   3419349.983   5484777.059
10 0 59549  10902.000000  0    2937344.493   3836769.442   4900325.657
10 0 59549  11022.000000  0    3469615.769   4177450.910   4229653.232
10 0 59549  11142.000000  0    3946497.572   4436292.006   3484533.501
10 0 59549  11262.000000  0    4358173.856   4609803.641   2678066.036
10 0 59549  11382.000000  0    4695928.396   4696158.492   1824442.478
10 0 59549  11502.000000  0    4952329.992   4695206.687    938693.986
10 0 59549  11622.000000  0    5121398.276   4608457.520     36420.273
10 0 59549  11742.000000  0    5198738.841   4439025.983   -866495.175
10 0 59549  11862.000000  0    5181645.758   4191546.416  -1754173.172
10 0 59549  11982.000000  0    5069171.185   3872056.187  -2611025.470
10 0 59549  12102.000000  0    4862159.487   3487852.138  -3422034.278
10 0 59549  12222.000000  0    4563244.767   3047324.728  -4173018.386
10 0 59549  12342.000000  0    4176812.686   2559773.566  -4850881.085
10 0 59549  12462.000000  0    3708928.760   2035208.221  -5443834.025
10 0 59549  12582.000000  0    3167235.422   1484140.939  -5941594.321
10 0 59549  12702.000000  0    2560819.748    917375.858  -6335553.005
10 0 59549  12822.000000  0    1900055.715    345798.547  -6618911.991
10 0 59549  12942.000000  0    1196425.823   -219829.370  -6786789.971
10 0 59549  13062.000000  0     462322.929   -769068.841  -6836299.372
10 0 59549  13182.000000  0    -289165.607  -1291991.696  -6766589.119
10 0 59549  13302.000000  0   -1044485.003  -1779354.717  -6578856.936
10 0 59549  13422.000000  0   -1789851.774  -2222759.313  -6276332.103
10 0 59549  13542.000000  0   -2511499.834  -2614794.493  -5864225.392
10 0 59549  13662.000000  0   -3195929.646  -2949160.040  -5349648.745
10 0 59549  13782.000000  0   -3830159.563  -3220770.198  -4741505.008
10 0 59549  13902.000000  0   -4401974.276  -3425834.581  -4050344.584
10 0 59549  14022.000000  0   -4900164.038  -3561913.725  -3288192.254
10 0 59549  14142.000000  0   -5314751.094  -3627948.895  -2468345.639
10 0 59549  14262.000000  0   -5637197.393  -3624264.490  -1605146.926
10 0 59549  14382.000000  0   -5860587.616  -3552542.141   -713732.138
10 0 59549  14502.000000  0   -5979783.295  -3415767.090    190237.546
10 0 59549  14622.000000  0   -5991543.673  -3218147.682   1090857.136
10 0 59549  14742.000000  0   -5894608.908  -2965009.492   1972267.371
10 0 59549  14862.000000  0   -5689741.453  -2662665.571   2818943.630
10 0 59549  14982.000000  0   -5379727.331  -2318268.287   3615976.638
10 0 59549  15102.000000  0   -4969336.627  -1939645.624   4349342.464
10 0 59549  15222.000000  0   -4465242.608  -1535124.934   5006152.177
10 0 59549  15342.000000  0   -3875905.392  -1113351.706   5574876.951
10 0 59549  15462.000000  0   -3211423.022   -683106.411   6045548.175
10 0 59549  15582.000000  0   -2483350.835   -253121.877   6409928.850
10 0 59549  15702.000000  0   -1704493.053    168093.497   6661651.348
10 0 59549  15822.000000  0    -888673.486    572421.893   6796321.485
10 0 59549  15942.000000  0     -50489.108    952290.906   6811590.349
10 0 59549  16062.000000  0     794950.620   1300814.436   6707192.448
10 0 59549  16182.000000  0    1632295.125   1611917.578   6484950.212
10 0 59549  16302.000000  0    2446230.484   1880442.700   6148743.707
10 0 59549  16422.000000  0    3221759.145   2102235.229   5704447.797
99
